PROMETHEUS 2-1          
1 41854U 16067G   23249.73463850  .00008612  00000+0  57589-3 0  9991
2 41854  98.0778  43.3504 0015517 302.7124  57.2606 15.07129471372768
PROMETHEUS 2-3          
1 41855U 16067H   23249.86148024  .00010270  00000+0  68637-3 0  9998
2 41855  98.0695  43.2578 0013239 312.0856  47.9243 15.07120949372788
INS-1B                  
1 41954U 17008G   23250.10485345  .00218297  00000+0  13512-2 0  9993
2 41954  97.1852 312.4852 0001523 149.6452 210.4903 15.76452645365697
DIDO-2                  
1 42000U 17008BE  23249.37924061  .00027029  00000+0  60602-3 0  9990
2 42000  97.1929 304.3188 0006917 103.7474 256.4545 15.43362262364447
PEASSS                  
1 42015U 17008BV  23249.90990929  .00096073  00000+0  10648-2 0  9990
2 42015  97.1959 314.1736 0003016 103.7621 256.3973 15.62651064365576
UCLSAT                  
1 42765U 17036A   23249.89563317  .00107801  00000+0  11727-2 0  9999
2 42765  97.1316 288.8748 0006916 140.6345 219.5417 15.63070082346591
AALTO-1                 
1 42775U 17036L   23249.83745180  .00024269  00000+0  63376-3 0  9998
2 42775  97.1473 277.6760 0010232 158.0782 202.0904 15.38733407345068
URSA MAIOR              
1 42776U 17036M   23249.06856872  .00027185  00000+0  65368-3 0  9998
2 42776  97.1480 278.5374 0009991 156.0644 204.1070 15.41232019345034
DIAMOND RED             
1 42783U 17036U   23249.05702463  .00033771  00000+0  70811-3 0  9998
2 42783  97.1445 282.2290 0008359 155.3051 204.8600 15.45291802345263
PEGASUS                 
1 42784U 17036V   23249.76024093  .00064092  00000+0  93738-3 0  9996
2 42784  97.1395 286.5873 0007844 142.4407 217.7398 15.55371526345622
DIAMOND GREEN           
1 42785U 17036W   23249.89579402  .00040691  00000+0  80475-3 0  9993
2 42785  97.1434 283.4053 0008235 152.0603 208.1091 15.46964705345488
DIAMOND BLUE            
1 42786U 17036X   23249.88560113  .00035804  00000+0  72778-3 0  9999
2 42786  97.1440 283.2747 0008400 151.3051 208.8663 15.46190366345393
SUCHAI                  
1 42788U 17036Z   23249.31546083  .00236942  00000+0  13272-2 0  9998
2 42788  97.1300 291.6900 0006515 156.6708 203.4856 15.78643348345995
SKCUBE                  
1 42789U 17036AA  23249.83842149  .00117885  00000+0  12194-2 0  9994
2 42789  97.1334 289.5827 0007519 141.3046 218.8754 15.64320154345829
ROBUSTA 1B              
1 42792U 17036AD  23249.84017949  .00196234  00000+0  14145-2 0  9994
2 42792  97.1296 291.4692 0006306 145.3415 214.8261 15.72952542345964
CICERO 6                
1 42793U 17036AE  23249.32748171  .00028203  00000+0  64257-3 0  9996
2 42793  97.1431 282.3714 0007725 154.5606 205.6024 15.42867508345396
CORVUS BC2              
1 42846U 17042X   23249.85464397  .00002345  00000+0  21828-3 0  9991
2 42846  97.3834  86.2666 0007576 304.6897  55.3610 14.95165833334922
CORVUS BC1              
1 42847U 17042Y   23249.50616818  .00003211  00000+0  29648-3 0  9992
2 42847  97.3830  86.3016 0007067 305.2700  54.7860 14.95259223334886
MIRATA                  
1 43015U 17073C   23250.07330404  .00014184  00000+0  85514-3 0  9997
2 43015  97.6207 135.5252 0205755 140.8701 220.7607 14.94797406313714
MAKERSAT 0              
1 43016U 17073D   23249.48658307  .00007754  00000+0  50906-3 0  9998
2 43016  97.6185 132.4916 0222058 154.0828 207.1716 14.89825873313416
CORVUS BC3              
1 43118U 18004H   23249.93720489  .00031591  00000+0  73379-3 0  9992
2 43118  97.3188 324.3674 0006698 197.1281 162.9741 15.42276043314622
CICERO 7                
1 43143U 18004AJ  23249.47689242  .00099584  00000+0  93004-3 0  9993
2 43143  97.3211 338.8198 0003548 189.7211 170.3982 15.66977611315434
GOMX-4B                 
1 43196U 18015E   23249.87414852  .00019253  00000+0  49625-3 0  9995
2 43196  97.5880  43.4047 0012567 272.6936  87.2870 15.39163778311502
GOMX-4A                 
1 43197U 18015F   23250.01614525  .00024501  00000+0  55532-3 0  9999
2 43197  97.5877  46.0985 0011875 264.8761  95.1131 15.43014927311705
CUBEBEL-1 (BSUSAT-1)    
1 43666U 18083E   23250.09228454  .00045247  00000+0  98899-3 0  9998
2 43666  97.3745 282.4808 0009344 170.1016 190.0418 15.43993377269810
CICERO 10               
1 43690U 18088A   23249.30134186  .00026326  00000+0  66204-3 0  9992
2 43690  85.0322  17.5530 0008633 287.5671  72.4637 15.39775409267948
PROXIMA I               
1 43694U 18088E   23249.80908593  .00034996  00000+0  77739-3 0  9999
2 43694  85.0256  12.5178 0010915 244.9421 115.0700 15.43470452268353
PROXIMA II              
1 43696U 18088G   23249.63617233  .00030372  00000+0  67919-3 0  9993
2 43696  85.0256  12.7005 0010950 245.3555 114.6558 15.43282299268310
SIRION PATHFINDER-2     
1 43759U 18099B   23250.09290249  .00003687  00000+0  30604-3 0  9991
2 43759  97.5632 309.4410 0013523 198.5703 161.5028 14.99309830259892
CORVUS BC4              
1 43767U 18099K   23250.08646405  .00003966  00000+0  33341-3 0  9999
2 43767  97.5581 307.2626 0010787 203.3459 156.7275 14.98794681259791
MOVE-II                 
1 43780U 18099Y   23249.97299287  .00011432  00000+0  79990-3 0  9999
2 43780  97.5648 312.3323 0007546 224.4119 135.6503 15.05407607260034
SPACEBEE-7              
1 43816U 18099BL  23249.16381635  .00007771  00000+0  56871-3 0  9993
2 43816  97.5886 312.4594 0012289 172.6928 187.4479 15.03796295259476
SPACEBEE-5              
1 43817U 18099BM  23249.18186099  .00045758  00000+0  18995-2 0  9994
2 43817  97.5841 321.7614 0005019 164.9987 195.1399 15.23680993260003
SPACEBEE-6              
1 43818U 18099BN  23249.90287448  .00014386  00000+0  93305-3 0  9997
2 43818  97.5824 315.6216 0011859 186.8409 173.2659 15.08135362259873
SHIELDS 1               
1 43850U 18104B   23250.07829675  .00008605  00000+0  29532-3 0  9992
2 43850  85.0243 114.6750 0014849  58.7753 301.4946 15.29869153262623
STF-1                   
1 43852U 18104D   23250.03048140  .00044133  00000+0  80244-3 0  9993
2 43852  85.0191 111.0108 0011007  55.4896 304.7398 15.49282082263046
ZACUBE-2                
1 43907U 18111AH  23250.05352263  .00033188  00000+0  69370-3 0  9993
2 43907  97.1233 127.9283 0010378 276.0139  83.9928 15.45366629261778
LUME 1                  
1 43908U 18111AJ  23249.32112225  .00045467  00000+0  72889-3 0  9996
2 43908  97.1222 131.6784 0007566 257.6961 102.3446 15.52922508261951
MOVE-IIB                
1 44398U 19038N   23250.06986174  .00092627  00000+0  15566-2 0  9992
2 44398  97.6638 237.4214 0009712  27.2861 332.8898 15.51387602231316
SONATE                  
1 44400U 19038Q   23249.87927479  .00013012  00000+0  55212-3 0  9990
2 44400  97.6915 229.3386 0021060  33.6302 326.6266 15.23033972230663
LUCKY-7                 
1 44406U 19038W   23249.40158106  .00015140  00000+0  57944-3 0  9996
2 44406  97.6875 230.4816 0019166  30.3836 329.8508 15.26493759230700
BEESAT 9                
1 44412U 19038AC  23249.39992533  .00027715  00000+0  83396-3 0  9992
2 44412  97.6801 232.9788 0014960  31.0055 329.2067 15.34229863230592
JAISAT-1                
1 44419U 19038F   23249.72587001  .00029799  00000+0  88888-3 0  9991
2 44419  97.6796 234.4320 0014079  27.0563 333.1410 15.34503195231029
DUCHIFAT-3              
1 44854U 19089C   23249.90531171  .00009649  00000+0  62456-3 0  9992
2 44854  36.9622 322.3935 0008424 264.1745  95.8039 15.07661514205163
EYESAT-NANO             
1 44877U 19092E   23249.82039139  .00098186  00000+0  15575-2 0  9992
2 44877  97.4561  82.6799 0006297 200.7010 159.3989 15.53012511206724
M2 PATHFINDER           
1 45727U 20037E   23249.42201874  .00003078  00000+0  28978-3 0  9999
2 45727  97.7632  63.1826 0011833   0.2875 359.8350 14.94545359173378
NETSAT-4                
1 46504U 20068U   23249.65436852  .00006697  00000+0  43092-3 0  9992
2 46504  97.7674 196.3164 0008748 248.4601 111.5695 15.08690592161183
NETSAT-3                
1 46505U 20068V   23249.83107788  .00006385  00000+0  41372-3 0  9999
2 46505  97.7647 196.2721 0007785 258.2695 101.7660 15.08462806161216
NETSAT-1                
1 46506U 20068W   23249.82765698  .00005237  00000+0  34434-3 0  9995
2 46506  97.7659 196.1131 0006351 271.3804  88.6696 15.08015330161207
NETSAT-2                
1 46507U 20068X   23249.65620135  .00006880  00000+0  44366-3 0  9993
2 46507  97.7660 196.0405 0005557 281.2110  78.8493 15.08617140161135
SAI-1 NANOCONNECT-2     
1 47701U 21015C   23249.47740773  .00087221  00000+0  10813-2 0  9991
2 47701  97.3764 335.1890 0006132 271.1027  88.9527 15.59739613140775
WILDTRACKCUBE-SIMBA     
1 47941U 21022K   23250.04934758  .00009234  00000+0  51683-3 0  9997
2 47941  97.4859 145.6510 0020360  57.3851 302.9342 15.13485158135385
BEESAT-6                
1 47957U 21022AB  23249.17705783  .00022430  00000+0  96649-3 0  9994
2 47957  97.4822 147.5387 0017497  54.5491 305.7376 15.22447850135241
SMOG-1                  
1 47964U 21022AJ  23249.14650692  .00024397  00000+0  99298-3 0  9994
2 47964  97.4866 149.8089 0015350  42.5321 317.7102 15.24392445134392
BCCSAT-1                
1 48041U 21022AK  23249.17600604  .00019102  00000+0  84471-3 0  9997
2 48041  97.4867 148.4520 0013448  44.7151 315.5167 15.21655838134286
BEESAT-5                
1 48083U 21022AM  23249.19308551  .00026758  00000+0  10899-2 0  9998
2 48083  97.4725 147.8569 0016866  53.0966 307.1814 15.24323648134410
BEESAT-7                
1 48084U 21022AN  23249.67064922  .00023794  00000+0  10034-2 0  9991
2 48084  97.4814 148.2169 0017024  51.8448 308.4319 15.23175352134059
BEESAT-8                
1 48085U 21022AP  23249.50479822  .00009914  00000+0  48933-3 0  9991
2 48085  97.4882 147.0683 0018660  54.3766 305.9202 15.17940205134515
LEDSAT                  
1 49069U 21073D   23249.16893071  .00008801  00000+0  46380-3 0  9996
2 49069  97.4756 318.7263 0023189 196.6726 163.3746 15.15591903113169
SPORT                   
1 55129U 98067UW  23249.02584178  .00215870  00000+0  79806-3 0  9992
2 55129  51.6236 260.8016 0008371  46.9304 313.2400 15.86968258 39299
